{
    "links": {
        "self": "http://www.neowsapp.com/rest/v1/neo/3174197?api_key=iIulBulltgU6a56xZRHN4H3l9WmuAYTsLGpBGhQ2"
    },
    "id": "3174197",
    "neo_reference_id": "3174197",
    "name": "(2004 BA75)",
    "designation": "2004 BA75",
    "nasa_jpl_url": "http://ssd.jpl.nasa.gov/sbdb.cgi?sstr=3174197",
    "absolute_magnitude_h": 24.447,
    "estimated_diameter": {
        "kilometers": {
            "estimated_diameter_min": 0.0342890124,
            "estimated_diameter_max": 0.0766725626
        },
        "meters": {
            "estimated_diameter_min": 34.2890123969,
            "estimated_diameter_max": 76.6725626008
        },
        "miles": {
            "estimated_diameter_min": 0.0213061979,
            "estimated_diameter_max": 0.0476421069
        },
        "feet": {
            "estimated_diameter_min": 112.4967634323,
            "estimated_diameter_max": 251.5504102833
        }
    },
    "is_potentially_hazardous_asteroid": false,
    "close_approach_data": [
        {
            "close_approach_date": "2004-01-13",
            "close_approach_date_full": "2004-Jan-13 13:11",
            "epoch_date_close_approach": 1073999460000,
            "relative_velocity": {
                "kilometers_per_second": "17.3394525875",
                "kilometers_per_hour": "62422.0293149496",
                "miles_per_hour": "38786.6214929474"
            },
            "miss_distance": {
                "astronomical": "0.0207960742",
                "lunar": "8.0896728638",
                "kilometers": "3111048.404681954",
                "miles": "1933115.8388968052"
            },
            "orbiting_body": "Earth"
        }
    ],
    "orbital_data": {
        "orbit_id": "8",
        "orbit_determination_date": "2017-04-06 09:13:14",
        "first_observation_date": "2004-01-27",
        "last_observation_date": "2004-01-31",
        "data_arc_in_days": 4,
        "observations_used": 14,
        "orbit_uncertainty": "9",
        "minimum_orbit_intersection": ".0132562",
        "jupiter_tisserand_invariant": "4.073",
        "epoch_osculation": "2453033.5",
        "eccentricity": ".6015775503978341",
        "semi_major_axis": "1.637137780731184",
        "inclination": "3.157641216528865",
        "ascending_node_longitude": "135.0198548720826",
        "orbital_period": "765.1142195003335",
        "perihelion_distance": ".6522724449351718",
        "perihelion_argument": "253.5348831112176",
        "aphelion_distance": "2.622003116527196",
        "perihelion_time": "2452969.785906051228",
        "mean_anomaly": "29.97862702974888",
        "mean_motion": ".4705179838836377",
        "equinox": "J2000",
        "orbit_class": {
            "orbit_class_type": "APO",
            "orbit_class_description": "Near-Earth asteroid orbits which cross the Earth’s orbit similar to that of 1862 Apollo",
            "orbit_class_range": "a (semi-major axis) > 1.0 AU; q (perihelion) < 1.017 AU"
        }
    },
    "is_sentry_object": false
}